{
  "type": "FeatureCollection",
  "features": [
    {
      "type": "Feature",
      "properties": {
        "norad_id": 58647,
        "name": "TIANMU-1 13",
        "group": "weather",
        "lat": -46.17718089143878,
        "lon": -172.94574170571656,
        "alt_km": 494.41934598363423,
        "timestamp": "2025-12-21T07:34:34.187964+00:00",
        "meta_object_name": "TIANMU-1 13",
        "meta_object_id": "2023-205C",
        "meta_epoch": "2025-12-20T22:42:32.977728",
        "meta_mean_motion": 15.24618912,
        "meta_eccentricity": 0.00063117,
        "meta_inclination": 97.361,
        "meta_ra_of_asc_node": 14.4325,
        "meta_arg_of_pericenter": 230.5558,
        "meta_mean_anomaly": 129.5122,
        "meta_ephemeris_type": 0,
        "meta_classification_type": "U",
        "meta_norad_cat_id": 58647,
        "meta_element_set_no": 999,
        "meta_rev_at_epoch": 11032,
        "meta_bstar": 0.00018656891,
        "meta_mean_motion_dot": 4.533e-05,
        "meta_mean_motion_ddot": 0,
        "tle_line1": "1 58647U 23205C   25354.94621502  .00004533  00000+0  18657-3 0  9994",
        "tle_line2": "2 58647  97.3610  14.4325 0006311 230.5558 129.5122 15.24618912110324"
      },
      "geometry": {
        "type": "Point",
        "coordinates": [
          -172.94574170571656,
          -46.17718089143878
        ]
      }
    },
    {
      "type": "Feature",
      "properties": {
        "norad_id": 58648,
        "name": "TIANMU-1 14",
        "group": "weather",
        "lat": -42.46373827070084,
        "lon": 20.924506804886303,
        "alt_km": 497.9603157514357,
        "timestamp": "2025-12-21T07:34:34.187973+00:00",
        "meta_object_name": "TIANMU-1 14",
        "meta_object_id": "2023-205D",
        "meta_epoch": "2025-12-20T23:53:17.138400",
        "meta_mean_motion": 15.24602735,
        "meta_eccentricity": 0.000706,
        "meta_inclination": 97.3542,
        "meta_ra_of_asc_node": 13.8219,
        "meta_arg_of_pericenter": 236.5985,
        "meta_mean_anomaly": 123.4578,
        "meta_ephemeris_type": 0,
        "meta_classification_type": "U",
        "meta_norad_cat_id": 58648,
        "meta_element_set_no": 999,
        "meta_rev_at_epoch": 11033,
        "meta_bstar": 0.00018386818,
        "meta_mean_motion_dot": 4.465e-05,
        "meta_mean_motion_ddot": 0,
        "tle_line1": "1 58648U 23205D   25354.99533725  .00004465  00000+0  18387-3 0  9993",
        "tle_line2": "2 58648  97.3542  13.8219 0007060 236.5985 123.4578 15.24602735110331"
      },
      "geometry": {
        "type": "Point",
        "coordinates": [
          20.924506804886303,
          -42.46373827070084
        ]
      }
    },
    {
      "type": "Feature",
      "properties": {
        "norad_id": 58660,
        "name": "TIANMU-1 19",
        "group": "weather",
        "lat": -43.734349888980226,
        "lon": 113.51863602279451,
        "alt_km": 489.1137622785536,
        "timestamp": "2025-12-21T07:34:34.187983+00:00",
        "meta_object_name": "TIANMU-1 19",
        "meta_object_id": "2023-208A",
        "meta_epoch": "2025-12-20T22:20:20.916960",
        "meta_mean_motion": 15.27987016,
        "meta_eccentricity": 0.00045016,
        "meta_inclination": 97.4395,
        "meta_ra_of_asc_node": 105.9525,
        "meta_arg_of_pericenter": 216.8411,
        "meta_mean_anomaly": 143.2519,
        "meta_ephemeris_type": 0,
        "meta_classification_type": "U",
        "meta_norad_cat_id": 58660,
        "meta_element_set_no": 999,
        "meta_rev_at_epoch": 11007,
        "meta_bstar": 0.00024856181,
        "meta_mean_motion_dot": 6.714e-05,
        "meta_mean_motion_ddot": 0,
        "tle_line1": "1 58660U 23208A   25354.93079765  .00006714  00000+0  24856-3 0  9990",
        "tle_line2": "2 58660  97.4395 105.9525 0004501 216.8411 143.2519 15.27987016110074"
      },
      "geometry": {
        "type": "Point",
        "coordinates": [
          113.51863602279451,
          -43.734349888980226
        ]
      }
    },
    {
      "type": "Feature",
      "properties": {
        "norad_id": 58661,
        "name": "TIANMU-1 20",
        "group": "weather",
        "lat": 65.61016030584324,
        "lon": 90.05742579451804,
        "alt_km": 476.21726450750066,
        "timestamp": "2025-12-21T07:34:34.187992+00:00",
        "meta_object_name": "TIANMU-1 20",
        "meta_object_id": "2023-208B",
        "meta_epoch": "2025-12-20T21:51:44.211168",
        "meta_mean_motion": 15.29177029,
        "meta_eccentricity": 0.00065913,
        "meta_inclination": 97.4332,
        "meta_ra_of_asc_node": 106.3883,
        "meta_arg_of_pericenter": 231.6516,
        "meta_mean_anomaly": 128.4132,
        "meta_ephemeris_type": 0,
        "meta_classification_type": "U",
        "meta_norad_cat_id": 58661,
        "meta_element_set_no": 999,
        "meta_rev_at_epoch": 11014,
        "meta_bstar": 0.00023194534,
        "meta_mean_motion_dot": 6.495e-05,
        "meta_mean_motion_ddot": 0,
        "tle_line1": "1 58661U 23208B   25354.91092837  .00006495  00000+0  23195-3 0  9995",
        "tle_line2": "2 58661  97.4332 106.3883 0006591 231.6516 128.4132 15.29177029110141"
      },
      "geometry": {
        "type": "Point",
        "coordinates": [
          90.05742579451804,
          65.61016030584324
        ]
      }
    },
    {
      "type": "Feature",
      "properties": {
        "norad_id": 58662,
        "name": "TIANMU-1 21",
        "group": "weather",
        "lat": 30.384077143200717,
        "lon": -66.86706825695164,
        "alt_km": 468.0958387138944,
        "timestamp": "2025-12-21T07:34:34.188002+00:00",
        "meta_object_name": "TIANMU-1 21",
        "meta_object_id": "2023-208C",
        "meta_epoch": "2025-12-20T21:31:08.254848",
        "meta_mean_motion": 15.31711843,
        "meta_eccentricity": 0.00062236,
        "meta_inclination": 97.4382,
        "meta_ra_of_asc_node": 108.3191,
        "meta_arg_of_pericenter": 225.9295,
        "meta_mean_anomaly": 134.1434,
        "meta_ephemeris_type": 0,
        "meta_classification_type": "U",
        "meta_norad_cat_id": 58662,
        "meta_element_set_no": 999,
        "meta_rev_at_epoch": 11024,
        "meta_bstar": 0.00024787392,
        "meta_mean_motion_dot": 7.515e-05,
        "meta_mean_motion_ddot": 0,
        "tle_line1": "1 58662U 23208C   25354.89662332  .00007515  00000+0  24787-3 0  9998",
        "tle_line2": "2 58662  97.4382 108.3191 0006223 225.9295 134.1434 15.31711843110244"
      },
      "geometry": {
        "type": "Point",
        "coordinates": [
          -66.86706825695164,
          30.384077143200717
        ]
      }
    },
    {
      "type": "Feature",
      "properties": {
        "norad_id": 58663,
        "name": "TIANMU-1 22",
        "group": "weather",
        "lat": -50.162132471187824,
        "lon": 115.40204619442726,
        "alt_km": 488.8030875182767,
        "timestamp": "2025-12-21T07:34:34.188011+00:00",
        "meta_object_name": "TIANMU-1 22",
        "meta_object_id": "2023-208D",
        "meta_epoch": "2025-12-20T22:21:58.142880",
        "meta_mean_motion": 15.27731445,
        "meta_eccentricity": 0.00027635,
        "meta_inclination": 97.4389,
        "meta_ra_of_asc_node": 106.0089,
        "meta_arg_of_pericenter": 243.4887,
        "meta_mean_anomaly": 116.6069,
        "meta_ephemeris_type": 0,
        "meta_classification_type": "U",
        "meta_norad_cat_id": 58663,
        "meta_element_set_no": 999,
        "meta_rev_at_epoch": 11008,
        "meta_bstar": 0.00023023669,
        "meta_mean_motion_dot": 6.163e-05,
        "meta_mean_motion_ddot": 0,
        "tle_line1": "1 58663U 23208D   25354.93192295  .00006163  00000+0  23024-3 0  9991",
        "tle_line2": "2 58663  97.4389 106.0089 0002763 243.4887 116.6069 15.27731445110086"
      },
      "geometry": {
        "type": "Point",
        "coordinates": [
          115.40204619442726,
          -50.162132471187824
        ]
      }
    },
    {
      "type": "Feature",
      "properties": {
        "norad_id": 58700,
        "name": "TIANMU-1 15",
        "group": "weather",
        "lat": -19.895241650881577,
        "lon": 179.47158110952688,
        "alt_km": 497.2511401578222,
        "timestamp": "2025-12-21T07:34:34.188022+00:00",
        "meta_object_name": "TIANMU-1 15",
        "meta_object_id": "2024-004A",
        "meta_epoch": "2025-12-20T22:12:44.260128",
        "meta_mean_motion": 15.24505813,
        "meta_eccentricity": 0.00059571,
        "meta_inclination": 97.4621,
        "meta_ra_of_asc_node": 176.3642,
        "meta_arg_of_pericenter": 255.2718,
        "meta_mean_anomaly": 104.7859,
        "meta_ephemeris_type": 0,
        "meta_classification_type": "U",
        "meta_norad_cat_id": 58700,
        "meta_element_set_no": 999,
        "meta_rev_at_epoch": 10859,
        "meta_bstar": 0.00020244585,
        "meta_mean_motion_dot": 4.907e-05,
        "meta_mean_motion_ddot": 0,
        "tle_line1": "1 58700U 24004A   25354.92551227  .00004907  00000+0  20245-3 0  9997",
        "tle_line2": "2 58700  97.4621 176.3642 0005957 255.2718 104.7859 15.24505813108597"
      },
      "geometry": {
        "type": "Point",
        "coordinates": [
          179.47158110952688,
          -19.895241650881577
        ]
      }
    }
  ]
}